STARLINK-2022           
1 47643U 21012Z   23353.59510717  .00005576  00000+0  39280-3 0  9998
2 47643  53.0552  92.7616 0001093  69.8149 290.2957 15.06414417158019
